{
  "type": "FeatureCollection",
  "features": [
    {
      "type": "Feature",
      "properties": {
        "norad_id": 58654,
        "name": "BEIDOU-3 M28 (C50)",
        "group": "beidou",
        "lat": -50.65491151884765,
        "lon": -55.028719799098496,
        "alt_km": 21526.965410165845,
        "timestamp": "2025-12-19T18:58:41.853678+00:00",
        "meta_object_name": "BEIDOU-3 M28 (C50)",
        "meta_object_id": "2023-207A",
        "meta_epoch": "2025-12-18T08:16:11.764704",
        "meta_mean_motion": 1.86229821,
        "meta_eccentricity": 0.00026501,
        "meta_inclination": 55.5892,
        "meta_ra_of_asc_node": 68.4116,
        "meta_arg_of_pericenter": 272.4264,
        "meta_mean_anomaly": 87.5728,
        "meta_ephemeris_type": 0,
        "meta_classification_type": "U",
        "meta_norad_cat_id": 58654,
        "meta_element_set_no": 999,
        "meta_rev_at_epoch": 1347,
        "meta_bstar": 0,
        "meta_mean_motion_dot": -6.6e-07,
        "meta_mean_motion_ddot": 0,
        "tle_line1": "1 58654U 23207A   25352.34458061 -.00000066  00000+0  00000+0 0  9991",
        "tle_line2": "2 58654  55.5892  68.4116 0002650 272.4264  87.5728  1.86229821 13471"
      },
      "geometry": {
        "type": "Point",
        "coordinates": [
          -55.028719799098496,
          -50.65491151884765
        ]
      }
    },
    {
      "type": "Feature",
      "properties": {
        "norad_id": 58655,
        "name": "BEIDOU-3 M26 (C48)",
        "group": "beidou",
        "lat": 20.637068562827515,
        "lon": 83.3000071636487,
        "alt_km": 21532.360735755337,
        "timestamp": "2025-12-19T18:58:41.853689+00:00",
        "meta_object_name": "BEIDOU-3 M26 (C48)",
        "meta_object_id": "2023-207B",
        "meta_epoch": "2025-12-19T05:11:10.015296",
        "meta_mean_motion": 1.86231346,
        "meta_eccentricity": 0.00040425,
        "meta_inclination": 55.592,
        "meta_ra_of_asc_node": 68.3684,
        "meta_arg_of_pericenter": 258.4158,
        "meta_mean_anomaly": 101.5732,
        "meta_ephemeris_type": 0,
        "meta_classification_type": "U",
        "meta_norad_cat_id": 58655,
        "meta_element_set_no": 999,
        "meta_rev_at_epoch": 1347,
        "meta_bstar": 0,
        "meta_mean_motion_dot": -5.7e-07,
        "meta_mean_motion_ddot": 0,
        "tle_line1": "1 58655U 23207B   25353.21608814 -.00000057  00000+0  00000+0 0  9992",
        "tle_line2": "2 58655  55.5920  68.3684 0004042 258.4158 101.5732  1.86231346 13473"
      },
      "geometry": {
        "type": "Point",
        "coordinates": [
          83.3000071636487,
          20.637068562827515
        ]
      }
    },
    {
      "type": "Feature",
      "properties": {
        "norad_id": 61186,
        "name": "BEIDOU-3 M25 (C47)",
        "group": "beidou",
        "lat": 29.997114040556664,
        "lon": 104.27203119786681,
        "alt_km": 21538.50866875196,
        "timestamp": "2025-12-19T18:58:41.853700+00:00",
        "meta_object_name": "BEIDOU-3 M25 (C47)",
        "meta_object_id": "2024-168B",
        "meta_epoch": "2025-12-19T07:17:41.808768",
        "meta_mean_motion": 1.86230286,
        "meta_eccentricity": 0.00054499,
        "meta_inclination": 54.6362,
        "meta_ra_of_asc_node": 308.493,
        "meta_arg_of_pericenter": 299.3686,
        "meta_mean_anomaly": 236.4152,
        "meta_ephemeris_type": 0,
        "meta_classification_type": "U",
        "meta_norad_cat_id": 61186,
        "meta_element_set_no": 999,
        "meta_rev_at_epoch": 843,
        "meta_bstar": 0,
        "meta_mean_motion_dot": -7.8e-07,
        "meta_mean_motion_ddot": 0,
        "tle_line1": "1 61186U 24168B   25353.30395612 -.00000078  00000+0  00000+0 0  9994",
        "tle_line2": "2 61186  54.6362 308.4930 0005449 299.3686 236.4152  1.86230286  8436"
      },
      "geometry": {
        "type": "Point",
        "coordinates": [
          104.27203119786681,
          29.997114040556664
        ]
      }
    },
    {
      "type": "Feature",
      "properties": {
        "norad_id": 61187,
        "name": "BEIDOU-3 M27 (C49)",
        "group": "beidou",
        "lat": -54.02146733786893,
        "lon": -129.39457948801817,
        "alt_km": 21530.64690664409,
        "timestamp": "2025-12-19T18:58:41.853711+00:00",
        "meta_object_name": "BEIDOU-3 M27 (C49)",
        "meta_object_id": "2024-168C",
        "meta_epoch": "2025-12-18T11:15:38.296800",
        "meta_mean_motion": 1.86230443,
        "meta_eccentricity": 0.00025049,
        "meta_inclination": 54.6324,
        "meta_ra_of_asc_node": 308.5054,
        "meta_arg_of_pericenter": 339.4033,
        "meta_mean_anomaly": 131.6614,
        "meta_ephemeris_type": 0,
        "meta_classification_type": "U",
        "meta_norad_cat_id": 61187,
        "meta_element_set_no": 999,
        "meta_rev_at_epoch": 589,
        "meta_bstar": 0,
        "meta_mean_motion_dot": -8.4e-07,
        "meta_mean_motion_ddot": 0,
        "tle_line1": "1 61187U 24168C   25352.46919325 -.00000084  00000+0  00000+0 0  9991",
        "tle_line2": "2 61187  54.6324 308.5054 0002504 339.4033 131.6614  1.86230443  5895"
      },
      "geometry": {
        "type": "Point",
        "coordinates": [
          -129.39457948801817,
          -54.02146733786893
        ]
      }
    }
  ]
}